SYRACUSE 4B             
1 57214U 23093B   26183.72387931 -.00000043  00000+0  00000+0 0  9992
2 57214   0.0187  44.7024 0000279 131.5119 358.6772  1.00271030  7129
JUPITER 3 (ECHOSTAR 24) 
1 57479U 23108A   26183.48530158  .00000000  00000+0  00000+0 0  9998
2 57479   0.0232  29.2689 0001162  65.2078 265.5365  1.00268982 10790
GALAXY 37 (G-37)        
1 57493U 23112A   26185.19709128  .00000000  00000+0  00000+0 0  9994
2 57493   0.0198  28.1175 0001949  83.2785 114.7693  1.00270276 10713
LUDI TANCE-4 01A        
1 57624U 23120A   26185.02605240 -.00000162  00000+0  00000+0 0  9991
2 57624  15.0935 193.5552 0001467  23.5637 163.7759  1.00266235 10715
TJS-10                  
1 58204U 23169A   26183.75054780 -.00000239  00000+0  00000+0 0  9999
2 58204   2.5821  80.3140 0004215 104.6482  98.4495  1.00269643  9696
ZHONGXING-6E            
1 58253U 23172A   26185.11711579  .00000000  00000+0  00000+0 0  9990
2 58253   0.0111  15.6447 0002424  89.4150 334.7651  1.00267394  9824
YAOGAN-41               
1 58582U 23197A   26185.03272576 -.00000349  00000+0  00000+0 0  9999
2 58582   3.0992 313.3824 0014380 196.5347 267.1276  1.00272474  9498
OVZON-3                 
1 58698U 24003A   26183.85094208  .00000062  00000+0  00000+0 0  9997
2 58698   0.0105  70.1871 0000389 318.3652 258.3697  1.00272523  7601
INSAT-3DS               
1 58990U 24033A   26185.09697672 -.00000144  00000+0  00000+0 0  9999
2 58990   0.0747  96.4447 0001273  11.4227 291.2094  1.00273426 47233
MERAH PUTIH 2           
1 58995U 24035A   26183.82252698  .00000000  00000+0  00000+0 0  9990
2 58995   0.0148  17.3979 0001254  72.7360 239.7841  1.00266597  8743
TJS-11                  
1 59020U 24037A   26183.90940088 -.00000351  00000+0  00000+0 0  9998
2 59020   4.1791 327.2640 0003278 126.9901 266.7071  1.00268695  8747
HULIANWAN GAOGUI-01 (H*)
1 59069U 24040A   26183.83543199  .00000167  00000+0  00000+0 0  9993
2 59069   0.0714 330.9620 0002621  77.2859 206.9921  1.00274278  7484
EUTELSAT 36D            
1 59346U 24059A   26183.86175148  .00000000  00000+0  00000+0 0  9995
2 59346   0.0225  45.7457 0000339  97.4569 123.7669  1.00270564  8305
PAKSAT-MM1              
1 59915U 24104A   26185.22979738  .00000165  00000+0  00000+0 0  9999
2 59915   0.0156 142.8665 0002540 296.3952 323.9316  1.00275902  7697
ASTRA 1P (SES-24)       
1 60086U 24115A   26183.74202802  .00000131  00000+0  00000+0 0  9991
2 60086   0.0604 342.3847 0000445 177.5391  47.2003  1.00270842  7354
GOES 19                 
1 60133U 24119A   26183.56768633 -.00000238  00000+0  00000+0 0  9996
2 60133   0.0126  77.9489 0000538  80.1000 251.7332  1.00271173  7117
ZHONGXING-3A            
1 60179U 24122A   26182.60462942 -.00000304  00000+0  00000+0 0  9992
2 60179   0.0347 112.7027 0001711  13.4089 112.7870  1.00276406  7452
TURKSAT 6A              
1 60233U 24127A   26185.23049072  .00000000  00000+0  00000+0 0  9997
2 60233   0.0147 195.0306 0002776 318.6590 253.5252  1.00270338  7180
HULIANWAN GAOGUI-02 (H*)
1 60327U 24135A   26182.61465295 -.00000164  00000+0  00000+0 0  9990
2 60327   0.0441 356.1189 0006987  15.2077 282.6697  1.00268199  7647
ZHONGXING-4A            
1 60606U 24151A   26185.11711579 -.00000350  00000+0  00000+0 0  9992
2 60606   1.2730 270.6022 0000272 187.9175 343.9887  1.00274181  6924
HULIANWAN GAOGUI-03 (H*)
1 61503U 24181A   26184.03267326 -.00000230  00000+0  00000+0 0  9995
2 61503   0.0478 357.4673 0001460  96.8383 121.4049  1.00270585  6981
DSN-3 (KIRAMEKI-3)      
1 61733U 24198A   26183.85803260 -.00000239  00000+0  00000+0 0  9999
2 61733   0.0195  25.1617 0000988  91.9857 256.7025  1.00271811  6074
KOREASAT 6A             
1 61910U 24206A   26184.74613684 -.00000350  00000+0  00000+0 0  9998
2 61910   0.0199  97.2931 0000785 355.1804 213.8932  1.00268363  6008
OPTUS-X (ADS-01)        
1 62006U 24212A   26185.18193674 -.00000131  00000+0  00000+0 0  9990
2 62006   0.0187 301.2797 0002406 200.3945   2.4309  1.00271866  5932
GSAT-N2 (GSAT-20)       
1 62028U 24214A   26185.23525741 -.00000008  00000+0  00000+0 0  9999
2 62028   0.0728  97.3824 0002072 358.1274 339.3916  1.00272960  6064
SXM-9                   
1 62259U 24234A   26183.77948934 -.00000194  00000+0  00000+0 0  9993
2 62259   0.0160 338.6703 0004844 342.1931 155.4102  1.00271475  5736
TJS-12                  
1 62374U 24246A   26185.17994339 -.00000218  00000+0  00000+0 0  9997
2 62374   0.6355 300.7630 0002143 104.3150  88.4545  1.00272712  5737
NUVIEW ALPHA            
1 62455U 24252B   26183.42355127 -.00000205  00000+0  00000+0 0  9992
2 62455   0.0500  33.1616 0001093  43.1718 273.4976  1.00271006  3970
AGILA                   
1 62456U 24252C   26183.86135470 -.00000171  00000+0  00000+0 0  9990
2 62456   0.0622 123.0682 0001075 359.6550 260.4177  1.00271235  5310
NUVIEW BRAVO            
1 62457U 24252D   26183.42355127 -.00000204  00000+0  00000+0 0  9993
2 62457   0.0714 158.3856 0001692 340.3431 211.1034  1.00271680  3943
THURAYA-4               
1 62483U 25001A   26184.94587436  .00000151  00000+0  00000+0 0  9993
2 62483   0.0204  68.0357 0000159  38.6779 200.0629  1.00272723  4349
SHIJIAN-25 (SJ-25)      
1 62485U 25002A   26183.76460027 -.00000341  00000+0  00000+0 0  9993
2 62485   5.1479  61.0664 0051630 174.7980  87.5189  1.00272141  5514
