OBJECT_NAME,OBJECT_ID,EPOCH,MEAN_MOTION,ECCENTRICITY,INCLINATION,RA_OF_ASC_NODE,ARG_OF_PERICENTER,MEAN_ANOMALY,EPHEMERIS_TYPE,CLASSIFICATION_TYPE,NORAD_CAT_ID,ELEMENT_SET_NO,REV_AT_EPOCH,BSTAR,MEAN_MOTION_DOT,MEAN_MOTION_DDOT
SYRACUSE 4B,2023-093B,2026-07-02T17:22:23.172384,1.00271030,.00002791,0.0187,44.7024,131.5119,358.6772,0,U,57214,999,712,0,-.43E-6,0
JUPITER 3 (ECHOSTAR 24),2023-108A,2026-07-02T11:38:50.056512,1.00268982,.00011621,0.0232,29.2689,65.2078,265.5365,0,U,57479,999,1079,0,0,0
GALAXY 37 (G-37),2023-112A,2026-07-04T04:43:48.686592,1.00270276,.00019495,0.0198,28.1175,83.2785,114.7693,0,U,57493,999,1071,0,0,0
LUDI TANCE-4 01A,2023-120A,2026-07-04T00:37:30.927360,1.00266235,.00014677,15.0935,193.5552,23.5637,163.7759,0,U,57624,999,1071,0,-.162E-5,0
TJS-10,2023-169A,2026-07-02T18:00:47.329920,1.00269643,.0004215,2.5821,80.3140,104.6482,98.4495,0,U,58204,999,969,0,-.239E-5,0
ZHONGXING-6E,2023-172A,2026-07-04T02:48:38.804256,1.00267394,.00024244,0.0111,15.6447,89.4150,334.7651,0,U,58253,999,982,0,0,0
YAOGAN-41,2023-197A,2026-07-04T00:47:07.505664,1.00272474,.00143807,3.0992,313.3824,196.5347,267.1276,0,U,58582,999,949,0,-.349E-5,0
OVZON-3,2024-003A,2026-07-02T20:25:21.395712,1.00272523,.00003895,0.0105,70.1871,318.3652,258.3697,0,U,58698,999,760,0,.62E-6,0
INSAT-3DS,2024-033A,2026-07-04T02:19:38.788608,1.00273426,.00012735,0.0747,96.4447,11.4227,291.2094,0,U,58990,999,4723,0,-.144E-5,0
MERAH PUTIH 2,2024-035A,2026-07-02T19:44:26.331072,1.00266597,.00012542,0.0148,17.3979,72.7360,239.7841,0,U,58995,999,874,0,0,0
TJS-11,2024-037A,2026-07-02T21:49:32.236032,1.00268695,.0003278,4.1791,327.2640,126.9901,266.7071,0,U,59020,999,874,0,-.351E-5,0
HULIANWAN GAOGUI-01 (HG-01),2024-040A,2026-07-02T20:03:01.323936,1.00274278,.00026215,0.0714,330.9620,77.2859,206.9921,0,U,59069,999,748,0,.167E-5,0
EUTELSAT 36D,2024-059A,2026-07-02T20:40:55.327872,1.00270564,.00003391,0.0225,45.7457,97.4569,123.7669,0,U,59346,999,830,0,0,0
PAKSAT-MM1,2024-104A,2026-07-04T05:30:54.493632,1.00275902,.00025401,0.0156,142.8665,296.3952,323.9316,0,U,59915,999,769,0,.165E-5,0
ASTRA 1P (SES-24),2024-115A,2026-07-02T17:48:31.220928,1.00270842,.00004457,0.0604,342.3847,177.5391,47.2003,0,U,60086,999,735,0,.131E-5,0
GOES 19,2024-119A,2026-07-02T13:37:28.098912,1.00271173,.0000538,0.0126,77.9489,80.1000,251.7332,0,U,60133,999,711,0,-.238E-5,0
ZHONGXING-3A,2024-122A,2026-07-01T14:30:39.981888,1.00276406,.0001711,0.0347,112.7027,13.4089,112.7870,0,U,60179,999,745,0,-.304E-5,0
TURKSAT 6A,2024-127A,2026-07-04T05:31:54.398208,1.00270338,.00027768,0.0147,195.0306,318.6590,253.5252,0,U,60233,999,718,0,0,0
HULIANWAN GAOGUI-02 (HG-02),2024-135A,2026-07-01T14:45:06.014880,1.00268199,.00069873,0.0441,356.1189,15.2077,282.6697,0,U,60327,999,764,0,-.164E-5,0
ZHONGXING-4A,2024-151A,2026-07-04T02:48:38.804256,1.00274181,.00002724,1.2730,270.6022,187.9175,343.9887,0,U,60606,999,692,0,-.35E-5,0
HULIANWAN GAOGUI-03 (HG-03),2024-181A,2026-07-03T00:47:02.969664,1.00270585,.00014608,0.0478,357.4673,96.8383,121.4049,0,U,61503,999,698,0,-.23E-5,0
DSN-3 (KIRAMEKI-3),2024-198A,2026-07-02T20:35:34.016640,1.00271811,.00009885,0.0195,25.1617,91.9857,256.7025,0,U,61733,999,607,0,-.239E-5,0
KOREASAT 6A,2024-206A,2026-07-03T17:54:26.222976,1.00268363,.00007852,0.0199,97.2931,355.1804,213.8932,0,U,61910,999,600,0,-.35E-5,0
OPTUS-X (ADS-01),2024-212A,2026-07-04T04:21:59.334336,1.00271866,.00024061,0.0187,301.2797,200.3945,2.4309,0,U,62006,999,593,0,-.131E-5,0
GSAT-N2 (GSAT-20),2024-214A,2026-07-04T05:38:46.240224,1.00272960,.00020729,0.0728,97.3824,358.1274,339.3916,0,U,62028,999,606,0,-.8E-7,0
SXM-9,2024-234A,2026-07-02T18:42:27.878976,1.00271475,.00048447,0.0160,338.6703,342.1931,155.4102,0,U,62259,999,573,0,-.194E-5,0
TJS-12,2024-246A,2026-07-04T04:19:07.108896,1.00272712,.00021438,0.6355,300.7630,104.3150,88.4545,0,U,62374,999,573,0,-.218E-5,0
NUVIEW ALPHA,2024-252B,2026-07-02T10:09:54.829728,1.00271006,.0001093,0.0500,33.1616,43.1718,273.4976,0,U,62455,999,397,0,-.205E-5,0
AGILA,2024-252C,2026-07-02T20:40:21.046080,1.00271235,.00010758,0.0622,123.0682,359.6550,260.4177,0,U,62456,999,531,0,-.171E-5,0
NUVIEW BRAVO,2024-252D,2026-07-02T10:09:54.829728,1.00271680,.0001692,0.0714,158.3856,340.3431,211.1034,0,U,62457,999,394,0,-.204E-5,0
THURAYA-4,2025-001A,2026-07-03T22:42:03.544704,1.00272723,.0000159,0.0204,68.0357,38.6779,200.0629,0,U,62483,999,434,0,.151E-5,0
SHIJIAN-25 (SJ-25),2025-002A,2026-07-02T18:21:01.463328,1.00272141,.005163,5.1479,61.0664,174.7980,87.5189,0,U,62485,999,551,0,-.341E-5,0
